[{"OBJECT_NAME":"GEESAT-1 07","OBJECT_ID":"2022-058G","EPOCH":"2026-03-09T22:03:59.499360","MEAN_MOTION":14.81010409,"ECCENTRICITY":0.0013079,"INCLINATION":49.9882,"RA_OF_ASC_NODE":299.8665,"ARG_OF_PERICENTER":75.3998,"MEAN_ANOMALY":284.8389,"EPHEMERIS_TYPE":0,"CLASSIFICATION_TYPE":"U","NORAD_CAT_ID":52791,"ELEMENT_SET_NO":999,"REV_AT_EPOCH":20521,"BSTAR":0.0003741149,"MEAN_MOTION_DOT":2.71e-5,"MEAN_MOTION_DDOT":0},{"OBJECT_NAME":"DMSP 5D-2 F13 DEB","OBJECT_ID":"1995-015GM","EPOCH":"2026-03-09T04:00:03.324096","MEAN_MOTION":14.82710819,"ECCENTRICITY":0.00051735,"INCLINATION":98.6787,"RA_OF_ASC_NODE":143.1524,"ARG_OF_PERICENTER":206.3109,"MEAN_ANOMALY":153.784,"EPHEMERIS_TYPE":0,"CLASSIFICATION_TYPE":"U","NORAD_CAT_ID":42271,"ELEMENT_SET_NO":999,"REV_AT_EPOCH":55741,"BSTAR":0.0052664935,"MEAN_MOTION_DOT":0.00042707,"MEAN_MOTION_DDOT":0}]
